AUTCUBE 2               
1 43681U 18084K   26068.48152820  .00005282  00000+0  33524-3 0  9991
2 43681  98.0799 269.3640 0009685  28.2406 331.9345 15.09319394401889
DISKSAT A               
1 67222U 25305D   26068.54789610  .00013824  00000+0  90452-3 0  9996
2 67222  45.0023 251.6019 0004082 318.1929  41.8634 15.07741062 12266
